  <relation id="-65335">
    <tag k="name" v="Australia and Oceania"/>
    <tag k="name:ar" v="أستراليا وأوقيانوسيا"/>
    <tag k="name:bg" v="Австралия и Океания"/>
    <tag k="name:by" v="Аўстралія і Акіянія"/>
    <tag k="name:cz" v="Austrálie a Oceánie"/>
    <tag k="name:de" v="Australien und Ozeanien"/>
    <tag k="name:en" v="Australia and Oceania"/>
    <tag k="name:es" v="Australia y Oceanía"/>
    <tag k="name:fi" v="Australia ja Oseania"/>
    <tag k="name:fr" v="Australie et Océanie"/>
    <tag k="name:he" v="אוסטרליה ואוקיאניה"/>
    <tag k="name:hi" v="ऑस्ट्रेलिया और ओशिनिया"/>
    <tag k="name:hu" v="Ausztrália és Óceánia"/>
    <tag k="name:it" v="Australia e Oceania"/>
    <tag k="name:ja" v="オーストラリアとオセアニア"/>
    <tag k="name:ko" v="호주와 오세아니아"/>
    <tag k="name:lt" v="Austrālija un Okeānija"/>
    <tag k="name:lv" v="Australija ir Okeanija"/>
    <tag k="name:no" v="Australia og Oceania"/>
    <tag k="name:pl" v="Australia i Oceania"/>
    <tag k="name:pt" v="Austrália e Oceania"/>
    <tag k="name:ro" v="Australia și Oceania"/>
    <tag k="name:ru" v="Австралия и Океания"/>
    <tag k="name:sk" v="Australia și Oceania"/>
    <tag k="name:sl" v="Avstralija in Oceanija"/>
    <tag k="name:sr" v="Аустралија и Океанија"/>
    <tag k="name:sv" v="Australien och Oceanien"/>
    <tag k="name:uk" v="Австралія та Океанія"/>
  </relation>

  <relation id="-65336">
    <tag k="name" v="Oceania"/>
    <tag k="name:ar" v="أوقيانوسيا"/>
    <tag k="name:bg" v="Океания"/>
    <tag k="name:by" v="Акіянія"/>
    <tag k="name:cz" v="Oceánie"/>
    <tag k="name:de" v="Ozeanien"/>
    <tag k="name:en" v="Oceania"/>
    <tag k="name:es" v="Oceanía"/>
    <tag k="name:fi" v="Oseania"/>
    <tag k="name:fr" v="Océanie"/>
    <tag k="name:he" v="אוקיאניה"/>
    <tag k="name:hi" v="ओशिनिया"/>
    <tag k="name:hu" v="Óceánia"/>
    <tag k="name:it" v="Oceania"/>
    <tag k="name:ja" v="オセアニア"/>
    <tag k="name:ko" v="오세아니아"/>
    <tag k="name:lt" v="Okeānija"/>
    <tag k="name:lv" v="Okeanija"/>
    <tag k="name:no" v="Oceania"/>
    <tag k="name:pl" v="Oceania"/>
    <tag k="name:pt" v="Oceania"/>
    <tag k="name:ro" v="Oceania"/>
    <tag k="name:ru" v="Океания"/>
    <tag k="name:sk" v="Oceania"/>
    <tag k="name:sl" v="Oceanija"/>
    <tag k="name:sr" v="Океанија"/>
    <tag k="name:sv" v="Oceanien"/>
    <tag k="name:uk" v="Океанія"/>
    <tag k="wikipedia" v="en:Oceania"/>
  </relation>

  <relation id="-65337">
    <tag k="name" v="Caribbean archipelago"/>
    <tag k="name:ar" v="أرخبيل البحر الكاريبي"/>
    <tag k="name:bg" v="Карибския архипелаг"/>
    <tag k="name:by" v="Карыбскі архіпелаг"/>
    <tag k="name:cz" v="Caribbean souostroví"/>
    <tag k="name:de" v="Karibik-Archipel"/>
    <tag k="name:en" v="Caribbean archipelago"/>
    <tag k="name:es" v="archipiélago del Caribe"/>
    <tag k="name:fi" v="Karibian saaristossa"/>
    <tag k="name:fr" v="archipel des Caraïbes"/>
    <tag k="name:he" v="ארכיפלג האיים הקאריביים"/>
    <tag k="name:hi" v="कैरेबियाई द्वीपसमूह"/>
    <tag k="name:hu" v="Karib-szigetvilág"/>
    <tag k="name:it" v="arcipelago caraibico"/>
    <tag k="name:ja" v="カリブ海列島"/>
    <tag k="name:ko" v="카리브 군도"/>
    <tag k="name:lt" v="Karibų salynas"/>
    <tag k="name:lv" v="Caribbean arhipelāgs"/>
    <tag k="name:no" v="caribbean skjærgården"/>
    <tag k="name:pl" v="archipelagu Karaibów"/>
    <tag k="name:pt" v="arquipélago caribenho"/>
    <tag k="name:ro" v="arhipelag Caraibe"/>
    <tag k="name:ru" v="Карибский архипелаг"/>
    <tag k="name:sk" v="Caribbean súostrovia"/>
    <tag k="name:sl" v="Caribbean otočje"/>
    <tag k="name:sr" v="Кариби архипелаг"/>
    <tag k="name:sv" v="Caribbean skärgården"/>
    <tag k="name:uk" v="Карибський архіпелаг"/>
    <tag k="wikipedia" v="en:Caribbean"/>
  </relation>
  <relation id="-65338">
    <tag k="name" v="Netherlands Antilles"/>
    <tag k="name:ar" v="جزر_الأنتيل_الهولندية"/>
    <tag k="name:bg" v="Нидерландски Антили"/>
    <tag k="name:by" v="Нідэрландскія Антыльскія астравы"/>
    <tag k="name:cz" v="Nizozemské Antily"/>
    <tag k="name:de" v="Niederländische Antillen"/>
    <tag k="name:en" v="Netherlands Antilles"/>
    <tag k="name:es" v="Antillas Neerlandesas"/>
    <tag k="name:fi" v="Alankomaiden Antillit"/>
    <tag k="name:fr" v="Antilles néerlandaises"/>
    <tag k="name:hi" v="नीदरलान्स आन्तिलन"/>
    <tag k="name:hu" v="Holland Antillák"/>
    <tag k="name:it" v="Antille Olandesi"/>
    <tag k="name:ja" v="オランダ領アンティル"/>
    <tag k="name:ko" v="네덜란드령 안틸레스"/>
    <tag k="name:lt" v="Nyderlandų Antilai"/>
    <tag k="name:lv" v="Nīderlandes Antiļas"/>
    <tag k="name:no" v="De nederlandske Antiller"/>
    <tag k="name:pl" v="Antyle Holenderskie"/>
    <tag k="name:pt" v="Antilhas Neerlandesas"/>
    <tag k="name:ro" v="Antilele Olandeze"/>
    <tag k="name:ru" v="Нидерландские Антильские острова"/>
    <tag k="name:sk" v="Holandské Antily"/>
    <tag k="name:sl" v="Nizozemski Antili"/>
    <tag k="name:sr" v="Холандски Антили"/>
    <tag k="name:sv" v="Nederländska Antillerna"/>
    <tag k="name:uk" v="Нідерландські Антильські острови"/>
    <tag k="wikipedia" v="nl:Nederlandse Antillen"/>
  </relation>